IRIDIUM 166             
1 43570U 18061B   24110.84098970  .00001043  00000+0  36550-3 0  9997
2 43570  86.4018  26.1883 0002437  80.7684 279.3788 14.34217242300406
IRIDIUM 158             
1 43571U 18061C   24110.32090837 -.00000692  00000+0 -25429-3 0  9999
2 43571  86.4015  26.4135 0001961  79.1474 280.9943 14.34214951300299
IRIDIUM 165             
1 43572U 18061D   24110.27650725  .00000779  00000+0  27116-3 0  9991
2 43572  86.4026  26.4632 0002234  84.4403 275.7048 14.34210736300317
IRIDIUM 155             
1 43573U 18061E   24110.86634326  .00000956  00000+0  33427-3 0  9995
2 43573  86.4018  26.1253 0002292  79.4714 280.6740 14.34232524300377
IRIDIUM 154             
1 43574U 18061F   24110.84734877  .00001289  00000+0  45313-3 0  9993
2 43574  86.4023  26.2277 0002132  91.9697 268.1743 14.34229218300418
IRIDIUM 163             
1 43575U 18061G   24110.82830884  .00000961  00000+0  33616-3 0  9996
2 43575  86.4019  26.1758 0002303  79.6681 280.4774 14.34222875300382
IRIDIUM 156             
1 43576U 18061H   24110.31456475  .00000752  00000+0  26133-3 0  9995
2 43576  86.4017  26.3967 0002076  82.8271 277.3161 14.34216926300300
IRIDIUM 164             
1 43577U 18061J   24110.29553355  .00000708  00000+0  24560-3 0  9991
2 43577  86.4022  26.4326 0001894  88.4780 271.6632 14.34214826300342
